[{"OBJECT_NAME":"QIANFAN-75","OBJECT_ID":"2025-046C","EPOCH":"2026-03-09T21:32:02.206464","MEAN_MOTION":13.50950936,"ECCENTRICITY":0.00144335,"INCLINATION":88.9753,"RA_OF_ASC_NODE":311.1445,"ARG_OF_PERICENTER":232.727,"MEAN_ANOMALY":127.2565,"EPHEMERIS_TYPE":0,"CLASSIFICATION_TYPE":"U","NORAD_CAT_ID":63161,"ELEMENT_SET_NO":999,"REV_AT_EPOCH":5911,"BSTAR":5.5418738e-5,"MEAN_MOTION_DOT":4.8e-7,"MEAN_MOTION_DDOT":0},{"OBJECT_NAME":"THOR ABLESTAR R\/B","OBJECT_ID":"1964-063A","EPOCH":"2026-03-09T23:54:10.270080","MEAN_MOTION":13.5631347,"ECCENTRICITY":0.00266304,"INCLINATION":90.224,"RA_OF_ASC_NODE":72.8661,"ARG_OF_PERICENTER":149.2616,"MEAN_ANOMALY":264.015,"EPHEMERIS_TYPE":0,"CLASSIFICATION_TYPE":"U","NORAD_CAT_ID":893,"ELEMENT_SET_NO":999,"REV_AT_EPOCH":3853,"BSTAR":3.9806942e-5,"MEAN_MOTION_DOT":3.7e-7,"MEAN_MOTION_DDOT":0}]
